{"type":"FeatureCollection","metadata":{"generated":1789735680000,"url":"https://earthquake.usgs.gov/earthquakes/feed/v1.0/summary/all_hour.geojson","title":"USGS All Earthquakes, Past Hour","status":200,"api":"2.7.0","count":9},"features":[{"type":"Feature","properties":{"mag":1.5,"place":"72 km E of Port Alsworth, Alaska","time":1789735479091,"updated":1789735618848,"tz":null,"url":"https://earthquake.usgs.gov/earthquakes/eventpage/aka2026snfewi","detail":"https://earthquake.usgs.gov/earthquakes/feed/v1.0/detail/aka2026snfewi.geojson","felt":null,"cdi":null,"mmi":null,"alert":null,"status":"automatic","tsunami":0,"sig":35,"net":"ak","code":"a2026snfewi","ids":",aka2026snfewi,","sources":",ak,","types":",origin,phase-data,","nst":31,"dmin":0.2,"rms":0.7,"gap":163,"magType":"ml","type":"earthquake","title":"M 1.5 - 72 km E of Port Alsworth, Alaska"},"geometry":{"type":"Point","coordinates":[-153.033,60.307,133.4]},"id":"aka2026snfewi"},
{"type":"Feature","properties":{"mag":0.72,"place":"7 km WNW of Cobb, CA","time":1789734947250,"updated":1789735046771,"tz":null,"url":"https://earthquake.usgs.gov/earthquakes/eventpage/nc75437762","detail":"https://earthquake.usgs.gov/earthquakes/feed/v1.0/detail/nc75437762.geojson","felt":null,"cdi":null,"mmi":null,"alert":null,"status":"automatic","tsunami":0,"sig":8,"net":"nc","code":"75437762","ids":",nc75437762,","sources":",nc,","types":",nearby-cities,origin,phase-data,","nst":8,"dmin":0.005473,"rms":0.01,"gap":91,"magType":"md","type":"earthquake","title":"M 0.7 - 7 km WNW of Cobb, CA"},"geometry":{"type":"Point","coordinates":[-122.797332763672,38.8380012512207,1.96000003814697]},"id":"nc75437762"},
{"type":"Feature","properties":{"mag":1.1,"place":"23 km S of South Van Horn, Alaska","time":1789734697465,"updated":1789734773907,"tz":null,"url":"https://earthquake.usgs.gov/earthquakes/eventpage/aka2026snetgy","detail":"https://earthquake.usgs.gov/earthquakes/feed/v1.0/detail/aka2026snetgy.geojson","felt":null,"cdi":null,"mmi":null,"alert":null,"status":"automatic","tsunami":0,"sig":19,"net":"ak","code":"a2026snetgy","ids":",aka2026snetgy,","sources":",ak,","types":",origin,phase-data,","nst":15,"dmin":0.1,"rms":0.4,"gap":84,"magType":"ml","type":"earthquake","title":"M 1.1 - 23 km S of South Van Horn, Alaska"},"geometry":{"type":"Point","coordinates":[-147.703,64.598,6.3]},"id":"aka2026snetgy"},
{"type":"Feature","properties":{"mag":1.33,"place":"7 km ENE of Calumet, Oklahoma","time":1789734267000,"updated":1789734680988,"tz":null,"url":"https://earthquake.usgs.gov/earthquakes/eventpage/ok2026shzj","detail":"https://earthquake.usgs.gov/earthquakes/feed/v1.0/detail/ok2026shzj.geojson","felt":null,"cdi":null,"mmi":null,"alert":null,"status":"reviewed","tsunami":0,"sig":27,"net":"ok","code":"2026shzj","ids":",ok2026shzj,","sources":",ok,","types":",origin,phase-data,","nst":78,"dmin":0.01169770451,"rms":0.23,"gap":41,"magType":"ml","type":"earthquake","title":"M 1.3 - 7 km ENE of Calumet, Oklahoma"},"geometry":{"type":"Point","coordinates":[-98.03433333,35.62083333,6]},"id":"ok2026shzj"},
{"type":"Feature","properties":{"mag":1.7,"place":"78 km NW of Eureka Roadhouse, Alaska","time":1789734194263,"updated":1789734317842,"tz":null,"url":"https://earthquake.usgs.gov/earthquakes/eventpage/aka2026snelxs","detail":"https://earthquake.usgs.gov/earthquakes/feed/v1.0/detail/aka2026snelxs.geojson","felt":null,"cdi":null,"mmi":null,"alert":null,"status":"automatic","tsunami":0,"sig":44,"net":"ak","code":"a2026snelxs","ids":",aka2026snelxs,","sources":",ak,","types":",origin,phase-data,","nst":32,"dmin":0.7,"rms":0.7,"gap":44,"magType":"ml","type":"earthquake","title":"M 1.7 - 78 km NW of Eureka Roadhouse, Alaska"},"geometry":{"type":"Point","coordinates":[-148.078,62.5,16.4]},"id":"aka2026snelxs"},
{"type":"Feature","properties":{"mag":4.7,"place":"34 km NNE of Ruteng, Indonesia","time":1789734056630,"updated":1789735509040,"tz":null,"url":"https://earthquake.usgs.gov/earthquakes/eventpage/us7000ti9c","detail":"https://earthquake.usgs.gov/earthquakes/feed/v1.0/detail/us7000ti9c.geojson","felt":null,"cdi":null,"mmi":null,"alert":null,"status":"reviewed","tsunami":0,"sig":340,"net":"us","code":"7000ti9c","ids":",us7000ti9c,","sources":",us,","types":",origin,phase-data,","nst":33,"dmin":3.385,"rms":0.99,"gap":114,"magType":"mb","type":"earthquake","title":"M 4.7 - 34 km NNE of Ruteng, Indonesia"},"geometry":{"type":"Point","coordinates":[120.5723,-8.3213,10]},"id":"us7000ti9c"},
{"type":"Feature","properties":{"mag":4.6,"place":"204 km N of Daocheng, China","time":1789733388959,"updated":1789734465040,"tz":null,"url":"https://earthquake.usgs.gov/earthquakes/eventpage/us7000ti9a","detail":"https://earthquake.usgs.gov/earthquakes/feed/v1.0/detail/us7000ti9a.geojson","felt":null,"cdi":null,"mmi":null,"alert":null,"status":"reviewed","tsunami":0,"sig":326,"net":"us","code":"7000ti9a","ids":",us7000ti9a,","sources":",us,","types":",origin,phase-data,","nst":45,"dmin":5.987,"rms":0.7,"gap":125,"magType":"mb","type":"earthquake","title":"M 4.6 - 204 km N of Daocheng, China"},"geometry":{"type":"Point","coordinates":[99.922,30.8534,10]},"id":"us7000ti9a"},
{"type":"Feature","properties":{"mag":4.2,"place":"34 km S of Jurm, Afghanistan","time":1789733258239,"updated":1789734817040,"tz":null,"url":"https://earthquake.usgs.gov/earthquakes/eventpage/us7000ti97","detail":"https://earthquake.usgs.gov/earthquakes/feed/v1.0/detail/us7000ti97.geojson","felt":null,"cdi":null,"mmi":null,"alert":null,"status":"reviewed","tsunami":0,"sig":271,"net":"us","code":"7000ti97","ids":",us7000ti97,","sources":",us,","types":",origin,phase-data,","nst":34,"dmin":2.181,"rms":0.69,"gap":76,"magType":"mb","type":"earthquake","title":"M 4.2 - 34 km S of Jurm, Afghanistan"},"geometry":{"type":"Point","coordinates":[70.8569,36.5552,179.456]},"id":"us7000ti97"},
{"type":"Feature","properties":{"mag":1.6,"place":"13 km SE of Balmorhea, Texas","time":1789733182555,"updated":1789733485827,"tz":null,"url":"https://earthquake.usgs.gov/earthquakes/eventpage/tx2026skewtt","detail":"https://earthquake.usgs.gov/earthquakes/feed/v1.0/detail/tx2026skewtt.geojson","felt":null,"cdi":null,"mmi":null,"alert":null,"status":"automatic","tsunami":0,"sig":39,"net":"tx","code":"2026skewtt","ids":",tx2026skewtt,","sources":",tx,","types":",origin,phase-data,","nst":20,"dmin":0.4,"rms":0.9,"gap":140,"magType":"ml","type":"earthquake","title":"M 1.6 - 13 km SE of Balmorhea, Texas"},"geometry":{"type":"Point","coordinates":[-103.645,30.902,0]},"id":"tx2026skewtt"}],"bbox":[-153.033,-8.3213,0,120.5723,64.598,179.456]}